[
    {
        "Altitude(m)": 709258.4891726389,
        "Argument of Periapsis(deg)": 0.0011390121186627068,
        "Eccentricity": 0.0,
        "Inclination(deg)": 45.0,
        "Latitude(deg)": -23.380998394435785,
        "Longitude(deg)": -94.58084455364875,
        "Mean Anomaly(deg)": -146.1193783352519,
        "RAAN(deg)": 159.9989248058542,
        "Satellite Name": "Constellation 1 717",
        "Satellite Number": 717,
        "Semi-Major Axis(m)": 7083131.272910544,
        "Time(s)": 19
    },
    {
        "Altitude(m)": 709272.1342756536,
        "Argument of Periapsis(deg)": 0.0011989601249081123,
        "Eccentricity": 0.0,
        "Inclination(deg)": 45.0,
        "Latitude(deg)": -23.419896611431028,
        "Longitude(deg)": -94.53418900479157,
        "Mean Anomaly(deg)": -146.058677195002,
        "RAAN(deg)": 159.9988682166886,
        "Satellite Name": "Constellation 1 717",
        "Satellite Number": 717,
        "Semi-Major Axis(m)": 7083131.272910544,
        "Time(s)": 20
    },
    {
        "Altitude(m)": 709285.7836867172,
        "Argument of Periapsis(deg)": 0.001258908131153518,
        "Eccentricity": 0.0,
        "Inclination(deg)": 45.0,
        "Latitude(deg)": -23.45877804143694,
        "Longitude(deg)": -94.48750390434819,
        "Mean Anomaly(deg)": -145.99797605475214,
        "RAAN(deg)": 159.99881162752303,
        "Satellite Name": "Constellation 1 717",
        "Satellite Number": 717,
        "Semi-Major Axis(m)": 7083131.272910544,
        "Time(s)": 21
    },
    {
        "Altitude(m)": 709299.4373600155,
        "Argument of Periapsis(deg)": 0.0013188561373989236,
        "Eccentricity": 0.0,
        "Inclination(deg)": 45.0,
        "Latitude(deg)": -23.497642644234823,
        "Longitude(deg)": -94.4407893606855,
        "Mean Anomaly(deg)": -145.9372749145022,
        "RAAN(deg)": 159.99875503835747,
        "Satellite Name": "Constellation 1 717",
        "Satellite Number": 717,
        "Semi-Major Axis(m)": 7083131.272910544,
        "Time(s)": 22
    },
    {
        "Altitude(m)": 709313.0952497132,
        "Argument of Periapsis(deg)": 0.0013788041436443293,
        "Eccentricity": 0.0,
        "Inclination(deg)": 45.0,
        "Latitude(deg)": -23.536490379548184,
        "Longitude(deg)": -94.39404497786425,
        "Mean Anomaly(deg)": -145.8765737742523,
        "RAAN(deg)": 159.9986984491919,
        "Satellite Name": "Constellation 1 717",
        "Satellite Number": 717,
        "Semi-Major Axis(m)": 7083131.272910544,
        "Time(s)": 23
    },
    {
        "Altitude(m)": 709326.757309933,
        "Argument of Periapsis(deg)": 0.001438752149889735,
        "Eccentricity": 0.0,
        "Inclination(deg)": 45.0,
        "Latitude(deg)": -23.57532120704293,
        "Longitude(deg)": -94.34727086422136,
        "Mean Anomaly(deg)": -145.81587263400237,
        "RAAN(deg)": 159.99864186002634,
        "Satellite Name": "Constellation 1 717",
        "Satellite Number": 717,
        "Semi-Major Axis(m)": 7083131.272910544,
        "Time(s)": 24
    },
    {
        "Altitude(m)": 709340.4234947831,
        "Argument of Periapsis(deg)": 0.0014987001561351404,
        "Eccentricity": 0.0,
        "Inclination(deg)": 45.0,
        "Latitude(deg)": -23.614135086326915,
        "Longitude(deg)": -94.30046695998224,
        "Mean Anomaly(deg)": -145.75517149375253,
        "RAAN(deg)": 159.9985852708608,
        "Satellite Name": "Constellation 1 717",
        "Satellite Number": 717,
        "Semi-Major Axis(m)": 7083131.272910544,
        "Time(s)": 25
    },
    {
        "Altitude(m)": 709354.0937583296,
        "Argument of Periapsis(deg)": 0.001558648162380546,
        "Eccentricity": 0.0,
        "Inclination(deg)": 45.0,
        "Latitude(deg)": -23.652931976950242,
        "Longitude(deg)": -94.25363320535766,
        "Mean Anomaly(deg)": -145.6944703535026,
        "RAAN(deg)": 159.99852868169518,
        "Satellite Name": "Constellation 1 717",
        "Satellite Number": 717,
        "Semi-Major Axis(m)": 7083131.272910544,
        "Time(s)": 26
    },
    {
        "Altitude(m)": 709367.7680546225,
        "Argument of Periapsis(deg)": 0.0016185961686259519,
        "Eccentricity": 0.0,
        "Inclination(deg)": 45.0,
        "Latitude(deg)": -23.691711838404757,
        "Longitude(deg)": -94.20676954054439,
        "Mean Anomaly(deg)": -145.6337692132527,
        "RAAN(deg)": 159.99847209252962,
        "Satellite Name": "Constellation 1 717",
        "Satellite Number": 717,
        "Semi-Major Axis(m)": 7083131.272910544,
        "Time(s)": 27
    },
    {
        "Altitude(m)": 709381.4463376761,
        "Argument of Periapsis(deg)": 0.0016785441748713573,
        "Eccentricity": 0.0,
        "Inclination(deg)": 45.0,
        "Latitude(deg)": -23.730474630124206,
        "Longitude(deg)": -94.15987590572513,
        "Mean Anomaly(deg)": -145.57306807300282,
        "RAAN(deg)": 159.99841550336404,
        "Satellite Name": "Constellation 1 717",
        "Satellite Number": 717,
        "Semi-Major Axis(m)": 7083131.272910544,
        "Time(s)": 28
    },
    {
        "Altitude(m)": 709395.1285614744,
        "Argument of Periapsis(deg)": 0.001738492181116763,
        "Eccentricity": 0.0,
        "Inclination(deg)": 45.0,
        "Latitude(deg)": -23.76922031148411,
        "Longitude(deg)": -94.11295224106871,
        "Mean Anomaly(deg)": -145.5123669327529,
        "RAAN(deg)": 159.9983589141985,
        "Satellite Name": "Constellation 1 717",
        "Satellite Number": 717,
        "Semi-Major Axis(m)": 7083131.272910544,
        "Time(s)": 29
    },
    {
        "Altitude(m)": 709408.8146799764,
        "Argument of Periapsis(deg)": 0.0017984401873621684,
        "Eccentricity": 0.0,
        "Inclination(deg)": 45.0,
        "Latitude(deg)": -23.807948841801416,
        "Longitude(deg)": -94.06599865482774,
        "Mean Anomaly(deg)": -145.451665792503,
        "RAAN(deg)": 159.99830232503294,
        "Satellite Name": "Constellation 1 717",
        "Satellite Number": 717,
        "Semi-Major Axis(m)": 7083131.272910544,
        "Time(s)": 30
    },
    {
        "Altitude(m)": 709422.5046471178,
        "Argument of Periapsis(deg)": 0.0018583881936075745,
        "Eccentricity": 0.0,
        "Inclination(deg)": 45.0,
        "Latitude(deg)": -23.846660180334762,
        "Longitude(deg)": -94.01901475094995,
        "Mean Anomaly(deg)": -145.39096465225316,
        "RAAN(deg)": 159.99824573586733,
        "Satellite Name": "Constellation 1 717",
        "Satellite Number": 717,
        "Semi-Major Axis(m)": 7083131.272910544,
        "Time(s)": 31
    },
    {
        "Altitude(m)": 709436.1984167903,
        "Argument of Periapsis(deg)": 0.0019183361998529795,
        "Eccentricity": 0.0,
        "Inclination(deg)": 45.0,
        "Latitude(deg)": -23.885354286284144,
        "Longitude(deg)": -93.97200063766135,
        "Mean Anomaly(deg)": -145.3302635120032,
        "RAAN(deg)": 159.99818914670178,
        "Satellite Name": "Constellation 1 717",
        "Satellite Number": 717,
        "Semi-Major Axis(m)": 7083131.272910544,
        "Time(s)": 32
    },
    {
        "Altitude(m)": 709449.895942884,
        "Argument of Periapsis(deg)": 0.0019782842060983856,
        "Eccentricity": 0.0,
        "Inclination(deg)": 45.0,
        "Latitude(deg)": -23.924031118790616,
        "Longitude(deg)": -93.92495625507816,
        "Mean Anomaly(deg)": -145.26956237175335,
        "RAAN(deg)": 159.9981325575362,
        "Satellite Name": "Constellation 1 717",
        "Satellite Number": 717,
        "Semi-Major Axis(m)": 7083131.272910544,
        "Time(s)": 33
    },
    {
        "Altitude(m)": 709463.5971792381,
        "Argument of Periapsis(deg)": 0.0020382322123437906,
        "Eccentricity": 0.0,
        "Inclination(deg)": 45.0,
        "Latitude(deg)": -23.962690636936763,
        "Longitude(deg)": -93.87788154330366,
        "Mean Anomaly(deg)": -145.20886123150342,
        "RAAN(deg)": 159.99807596837064,
        "Satellite Name": "Constellation 1 717",
        "Satellite Number": 717,
        "Semi-Major Axis(m)": 7083131.272910544,
        "Time(s)": 34
    },
    {
        "Altitude(m)": 709477.3020796748,
        "Argument of Periapsis(deg)": 0.002098180218589197,
        "Eccentricity": 0.0,
        "Inclination(deg)": 45.0,
        "Latitude(deg)": -24.001332799745914,
        "Longitude(deg)": -93.83077644242903,
        "Mean Anomaly(deg)": -145.14816009125352,
        "RAAN(deg)": 159.99801937920506,
        "Satellite Name": "Constellation 1 717",
        "Satellite Number": 717,
        "Semi-Major Axis(m)": 7083131.272910544,
        "Time(s)": 35
    },
    {
        "Altitude(m)": 709491.01059799,
        "Argument of Periapsis(deg)": 0.002158128224834602,
        "Eccentricity": 0.0,
        "Inclination(deg)": 45.0,
        "Latitude(deg)": -24.03995756618252,
        "Longitude(deg)": -93.78364089253304,
        "Mean Anomaly(deg)": -145.08745895100364,
        "RAAN(deg)": 159.99796279003948,
        "Satellite Name": "Constellation 1 717",
        "Satellite Number": 717,
        "Semi-Major Axis(m)": 7083131.272910544,
        "Time(s)": 36
    },
    {
        "Altitude(m)": 709504.7226879476,
        "Argument of Periapsis(deg)": 0.002218076231080008,
        "Eccentricity": 0.0,
        "Inclination(deg)": 45.0,
        "Latitude(deg)": -24.07856489515183,
        "Longitude(deg)": -93.73647500177982,
        "Mean Anomaly(deg)": -145.02675781075374,
        "RAAN(deg)": 159.99790620087393,
        "Satellite Name": "Constellation 1 717",
        "Satellite Number": 717,
        "Semi-Major Axis(m)": 7083131.272910544,
        "Time(s)": 37
    }
]